TIGRISAT                
1 40043U 14033AK  26065.82681912  .00003454  00000+0  40489-3 0  9991
2 40043  97.7668 218.2985 0050546  51.5856 308.9881 14.84709959630430
AEROCUBE 6A             
1 40045U 14033AM  26065.38779971  .00007910  00000+0  68541-3 0  9997
2 40045  97.7117 233.5749 0039108   0.6051 359.5211 14.96783313631239
AEROCUBE 6B             
1 40046U 14033AN  26065.42080932  .00008401  00000+0  70277-3 0  9990
2 40046  97.7119 233.1942 0037554 353.5755   6.4981 14.98173727631367
CANX-4                  
1 40055U 14034C   26065.19787344  .00001592  00000+0  21242-3 0  9998
2 40055  98.3282 296.6514 0012569 348.0358  12.0553 14.81051341629286
CANX-5                  
1 40056U 14034D   26065.19748572  .00001605  00000+0  21397-3 0  9995
2 40056  98.3283 296.6887 0012570 348.1880  11.9035 14.81068109620097
UKUBE-1                 
1 40074U 14037F   26064.91073485  .00011838  00000+0  69915-3 0  9998
2 40074  98.4232  57.4881 0002911 114.9636 245.1894 15.11691452632943
BRITE-PL2 (HEWELIUSZ)   
1 40119U 14049B   26065.25774360  .00003850  00000+0  36435-3 0  9995
2 40119  97.8984 176.5682 0015608  91.8548 268.4459 14.94161298626076
AEROCUBE 5C             
1 40965U 15058B   26065.76043354  .00005628  00000+0  49869-3 0  9993
2 40965  64.7671 221.0825 0130850 103.6534 257.9187 14.90825487350382
AEROCUBE 7              
1 40966U 15058C   26065.77381360  .00007480  00000+0  60510-3 0  9991
2 40966  64.7628 205.3858 0120774 102.7225 258.7421 14.94858540350646
FOX-1A (AO-85)          
1 40967U 15058D   26065.77409044  .00005359  00000+0  48410-3 0  9990
2 40967  64.7742 237.0932 0129053  97.0911 264.4896 14.90324942 98308
SINOD-D 1               
1 40968U 15058E   26065.83033869  .00007555  00000+0  61338-3 0  9990
2 40968  64.7754 219.2358 0117374  94.3709 267.0826 14.95012896101353
SNAP-3 ALICE            
1 40970U 15058G   26065.46486890  .00062439  00000+0  13583-2 0  9998
2 40970  64.7556  94.2005 0037521  69.8802 290.6367 15.43185667100950
LMRST-SAT               
1 40971U 15058H   26065.83803720  .00005517  00000+0  50009-3 0  9994
2 40971  64.7750 233.0430 0131150  99.0070 262.5911 14.89958892 98302
SNAP-3 EDDIE            
1 40972U 15058J   26065.78753381  .00078337  00000+0  16382-2 0  9991
2 40972  64.7476  84.5214 0038673  74.7100 285.8308 15.44212577103138
PROPCUBE 3              
1 40973U 15058K   26065.85271899  .00006795  00000+0  56759-3 0  9991
2 40973  64.7689 212.0806 0123720 100.7833 260.7235 14.93492530 99510
BISONSAT                
1 40974U 15058L   26065.65195746  .00014490  00000+0  74979-3 0  9991
2 40974  64.7599 144.5433 0079518  92.0231 269.0001 15.13702722100084
SNAP-3 JIMI             
1 40975U 15058M   26065.30055915  .00008539  00000+0  60250-3 0  9991
2 40975  64.7663 185.0026 0105689  97.8734 263.4395 15.01074067 98772
